NORAD_CAT_ID,OBJECT_NAME,OBJECT_TYPE,EPOCH,MEAN_MOTION,ECCENTRICITY,INCLINATION,RA_OF_ASC_NODE,ARG_OF_PERICENTER,MEAN_ANOMALY,BSTAR,MEAN_MOTION_DOT,MEAN_MOTION_DDOT,TLE_LINE0,TLE_LINE1,TLE_LINE2,SEMIMAJOR_AXIS,PERIOD,APOGEE,PERIGEE,DECAYED
53024.0,STARLINK-4289,PAYLOAD,2023-06-07 19:25:02,15.0884144,0.0001271,53.2151,279.6991,59.7824,300.3294,4.1592e-05,3.74e-06,0.0,0 STARLINK-4289,1 53024U 22076AQ  23158.80905885  .00000374  00000-0  41592-4 0  9992,2 53024  53.2151 279.6991 0001271  59.7824 300.3294 15.08841440 51138,6917.876,95.437,540.62,538.862,0.0
53024.0,STARLINK-4289,PAYLOAD,2023-06-08 14:29:40,15.08841457,9.69e-05,53.2158,276.1287,93.0572,267.0531,0.00012696,1.733e-05,0.0,0 STARLINK-4289,1 53024U 22076AQ  23159.60393616  .00001733  00000-0  12696-3 0  9996,2 53024  53.2158 276.1287 0000969  93.0572 267.0531 15.08841457 51253,6917.876,95.437,540.411,539.071,0.0
53024.0,STARLINK-4289,PAYLOAD,2023-06-08 19:15:48,15.0885069,0.000103,53.2157,275.2362,91.9218,268.1892,0.0001762,2.518e-05,0.0,0 STARLINK-4289,1 53024U 22076AQ  23159.80264940  .00002518  00000-0  17620-3 0  9999,2 53024  53.2157 275.2362 0001030  91.9218 268.1892 15.08850690 51756,6917.848,95.437,540.425,539.0,0.0
53024.0,STARLINK-4289,PAYLOAD,2023-06-09 07:58:54,15.08839143,0.000193,53.2114,272.8566,93.1958,266.9255,0.00014735,2.058e-05,0.0,0 STARLINK-4289,1 53024U 22076AQ  23160.33258032  .00002058  00000-0  14735-3 0  9997,2 53024  53.2114 272.8566 0001930  93.1958 266.9255 15.08839143 51830,6917.883,95.438,541.083,538.413,0.0
53024.0,STARLINK-4289,PAYLOAD,2023-06-09 14:20:27,15.08839391,0.0002061,53.211,271.667,96.1038,264.0188,0.00012585,1.715e-05,0.0,0 STARLINK-4289,1 53024U 22076AQ  23160.59754006  .00001715  00000-0  12585-3 0  9997,2 53024  53.2110 271.6670 0002061  96.1038 264.0188 15.08839391 51409,6917.882,95.438,541.173,538.321,0.0
53024.0,STARLINK-4289,PAYLOAD,2023-06-10 07:49:42,15.08842321,9.23e-05,53.2157,268.3967,90.678,269.4317,-9.3553e-05,-1.776e-05,0.0,0 STARLINK-4289,1 53024U 22076AQ  23161.32618589 -.00001776  00000-0 -93553-4 0  9998,2 53024  53.2157 268.3967 0000923  90.6780 269.4317 15.08842321 51983,6917.873,95.437,540.377,539.1,0.0
53024.0,STARLINK-4289,PAYLOAD,2023-06-10 14:11:14,15.08839839,9.35e-05,53.2157,267.2078,94.3454,265.7645,1.9297e-07,-2.85e-06,0.0,0 STARLINK-4289,1 53024U 22076AQ  23161.59114400 -.00000285  00000-0  19297-6 0  9998,2 53024  53.2157 267.2078 0000935  94.3454 265.7645 15.08839839 51552,6917.881,95.438,540.393,539.099,0.0
53024.0,STARLINK-4289,PAYLOAD,2023-06-10 17:22:00,15.08844908,0.0001046,53.2159,266.6124,96.1495,263.9616,4.4197e-05,4.16e-06,0.0,0 STARLINK-4289,1 53024U 22076AQ  23161.72361937  .00000416  00000-0  44197-4 0  9992,2 53024  53.2159 266.6124 0001046  96.1495 263.9616 15.08844908 51571,6917.865,95.437,540.454,539.007,0.0
53024.0,STARLINK-4289,PAYLOAD,2023-06-11 06:05:06,15.08824894,9.72e-05,53.2163,264.2331,112.3736,247.736,0.00031069,4.658e-05,0.0,0 STARLINK-4289,1 53024U 22076AQ  23162.25354774  .00004658  00000-0  31069-3 0  9997,2 53024  53.2163 264.2331 0000972 112.3736 247.7360 15.08824894 52126,6917.927,95.439,540.464,539.119,0.0
53024.0,STARLINK-4289,PAYLOAD,2023-06-11 14:02:01,15.08845782,0.0001356,53.2166,262.7463,105.8072,254.307,-5.4453e-05,-1.155e-05,0.0,0 STARLINK-4289,1 53024U 22076AQ  23162.58474233 -.00001155  00000-0 -54453-4 0  9990,2 53024  53.2166 262.7463 0001356 105.8072 254.3070 15.08845782 51709,6917.863,95.437,540.666,538.79,0.0
53024.0,STARLINK-4289,PAYLOAD,2023-06-11 23:34:20,15.08838465,0.0001021,53.2162,260.9632,90.4907,269.6202,8.3303e-05,1.038e-05,0.0,0 STARLINK-4289,1 53024U 22076AQ  23162.98218511  .00001038  00000-0  83303-4 0  9993,2 53024  53.2162 260.9632 0001021  90.4907 269.6202 15.08838465 51760,6917.885,95.438,540.456,539.044,0.0
53024.0,STARLINK-4289,PAYLOAD,2023-06-12 10:42:03,15.08835989,0.0001099,53.2166,258.8808,98.7963,261.3154,7.764e-05,9.48e-06,0.0,0 STARLINK-4289,1 53024U 22076AQ  23163.44586818  .00000948  00000-0  77640-4 0  9999,2 53024  53.2166 258.8808 0001099  98.7963 261.3154 15.08835989 51834,6917.893,95.438,540.518,538.997,0.0
53024.0,STARLINK-4289,PAYLOAD,2023-06-12 23:25:07,15.08839699,9.01e-05,53.2146,256.501,80.1118,279.9975,9.1123e-05,1.163e-05,0.0,0 STARLINK-4289,1 53024U 22076AQ  23163.97578620  .00001163  00000-0  91123-4 0  9991,2 53024  53.2146 256.5010 0000901  80.1118 279.9975 15.08839699 52389,6917.881,95.438,540.37,539.123,0.0
53024.0,STARLINK-4289,PAYLOAD,2023-06-13 05:46:41,15.08835594,0.0001709,53.2149,255.3117,80.6215,279.497,5.0408e-05,5.14e-06,0.0,0 STARLINK-4289,1 53024U 22076AQ  23164.24075249  .00000514  00000-0  50408-4 0  9991,2 53024  53.2149 255.3117 0001709  80.6215 279.4970 15.08835594 51959,6917.894,95.438,540.941,538.577,0.0
53024.0,STARLINK-4289,PAYLOAD,2023-06-14 08:48:12,15.08882922,0.0001618,53.2156,250.2569,70.3752,289.7414,-0.00048961,-8.081e-05,0.0,0 STARLINK-4289,1 53024U 22076AQ  23165.36681294 -.00008081  00000-0 -48961-3 0  9997,2 53024  53.2156 250.2569 0001618  70.3752 289.7414 15.08882922 52598,6917.749,95.435,540.733,538.495,0.0
53024.0,STARLINK-4289,PAYLOAD,2023-06-14 15:09:45,15.08849915,0.0001222,53.2154,249.0674,73.3534,286.7592,0.0001233,1.676e-05,0.0,0 STARLINK-4289,1 53024U 22076AQ  23165.63177977  .00001676  00000-0  12330-3 0  9997,2 53024  53.2154 249.0674 0001222  73.3534 286.7592 15.08849915 52635,6917.85,95.437,540.56,538.87,0.0
53024.0,STARLINK-4289,PAYLOAD,2023-06-15 10:14:24,15.08832612,9.48e-05,53.2151,245.4971,90.6064,269.5036,0.00010424,1.371e-05,0.0,0 STARLINK-4289,1 53024U 22076AQ  23166.42667039  .00001371  00000-0  10424-3 0  9992,2 53024  53.2151 245.4971 0000948  90.6064 269.5036 15.08832612 52757,6917.903,95.438,540.424,539.112,0.0
53024.0,STARLINK-4289,PAYLOAD,2023-06-15 11:49:47,15.08838328,0.0001118,53.2153,245.1996,99.9903,260.1216,3.4034e-05,2.54e-06,0.0,0 STARLINK-4289,1 53024U 22076AQ  23166.49290857  .00000254  00000-0  34034-4 0  9992,2 53024  53.2153 245.1996 0001118  99.9903 260.1216 15.08838328 52293,6917.885,95.438,540.524,538.977,0.0
53024.0,STARLINK-4289,PAYLOAD,2023-06-16 11:40:33,15.08853659,0.0001133,53.2153,240.7413,79.0075,281.1044,0.00014319,1.993e-05,0.0,0 STARLINK-4289,1 53024U 22076AQ  23167.48649568  .00001993  00000-0  14319-3 0  9993,2 53024  53.2153 240.7413 0001133  79.0075 281.1044 15.08853659 52919,6917.839,95.437,540.487,538.92,0.0
53024.0,STARLINK-4289,PAYLOAD,2023-06-16 13:15:54,15.08903919,0.000178,53.2152,240.4433,111.7951,248.3231,-0.00059183,-9.711e-05,0.0,0 STARLINK-4289,1 53024U 22076AQ  23167.55271521 -.00009711  00000-0 -59183-3 0  9997,2 53024  53.2152 240.4433 0001780 111.7951 248.3231 15.08903919 52459,6917.685,95.434,540.781,538.319,0.0
53024.0,STARLINK-4289,PAYLOAD,2023-06-16 14:51:19,15.08857485,0.000114,53.2148,240.1465,79.6597,280.4524,0.00023701,3.488e-05,0.0,0 STARLINK-4289,1 53024U 22076AQ  23167.61897686  .00003488  00000-0  23701-3 0  9990,2 53024  53.2148 240.1465 0001140  79.6597 280.4524 15.08857485 52463,6917.827,95.436,540.481,538.903,0.0
53024.0,STARLINK-4289,PAYLOAD,2023-06-17 08:20:35,15.08836538,0.0001074,53.2146,236.8748,96.1946,263.9169,3.6981e-05,3.01e-06,0.0,0 STARLINK-4289,1 53024U 22076AQ  23168.34762733  .00000301  00000-0  36981-4 0  9991,2 53024  53.2146 236.8748 0001074  96.1946 263.9169 15.08836538 53047,6917.891,95.438,540.499,539.013,0.0
53024.0,STARLINK-4289,PAYLOAD,2023-06-17 13:06:44,15.08840741,0.0001061,53.2146,235.9831,89.8406,270.2708,5.1078e-05,5.25e-06,0.0,0 STARLINK-4289,1 53024U 22076AQ  23168.54634543  .00000525  00000-0  51078-4 0  9992,2 53024  53.2146 235.9831 0001061  89.8406 270.2708 15.08840741 52608,6917.878,95.438,540.477,539.009,0.0
53024.0,STARLINK-4289,PAYLOAD,2023-06-17 21:03:40,15.08834962,0.0001062,53.2146,234.4964,89.6087,270.5027,-5.4736e-05,-1.159e-05,0.0,0 STARLINK-4289,1 53024U 22076AQ  23168.87754840 -.00001159  00000-0 -54736-4 0  9991,2 53024  53.2146 234.4964 0001062  89.6087 270.5027 15.08834962 52653,6917.896,95.438,540.495,539.026,0.0
53024.0,STARLINK-4289,PAYLOAD,2023-06-18 11:22:08,15.08835437,0.0001053,53.2143,231.8204,91.7424,268.3689,-1.687e-05,-5.56e-06,0.0,0 STARLINK-4289,1 53024U 22076AQ  23169.47371016 -.00000556  00000-0 -16870-4 0  9995,2 53024  53.2143 231.8204 0001053  91.7424 268.3689 15.08835437 52744,6917.894,95.438,540.488,539.031,0.0
53024.0,STARLINK-4289,PAYLOAD,2023-06-19 00:05:13,15.08836277,0.0001064,53.2144,229.4413,92.9866,267.1248,0.0001307,1.793e-05,0.0,0 STARLINK-4289,1 53024U 22076AQ  23170.00363229  .00001793  00000-0  13070-3 0  9993,2 53024  53.2144 229.4413 0001064  92.9866 267.1248 15.08836277 52825,6917.892,95.438,540.493,539.021,0.0
53024.0,STARLINK-4289,PAYLOAD,2023-06-19 20:45:14,15.0884019,0.0001079,53.2147,225.5761,94.3384,265.7732,0.00016304,2.308e-05,0.0,0 STARLINK-4289,1 53024U 22076AQ  23170.86475254  .00002308  00000-0  16304-3 0  9995,2 53024  53.2147 225.5761 0001079  94.3384 265.7732 15.08840190 52953,6917.88,95.438,540.491,538.998,0.0
53024.0,STARLINK-4289,PAYLOAD,2023-06-20 12:39:06,15.08841087,0.0001073,53.2141,222.6016,92.3573,267.7542,0.00013094,1.797e-05,0.0,0 STARLINK-4289,1 53024U 22076AQ  23171.52715304  .00001797  00000-0  13094-3 0  9996,2 53024  53.2141 222.6016 0001073  92.3573 267.7542 15.08841087 53059,6917.877,95.437,540.484,539.0,0.0
53024.0,STARLINK-4289,PAYLOAD,2023-06-21 02:57:34,15.08843825,0.0001085,53.214,219.9253,90.7594,269.3522,0.00011851,1.599e-05,0.0,0 STARLINK-4289,1 53024U 22076AQ  23172.12331170  .00001599  00000-0  11851-3 0  9997,2 53024  53.2140 219.9253 0001085  90.7594 269.3522 15.08843825 53618,6917.869,95.437,540.484,538.983,0.0
53024.0,STARLINK-4289,PAYLOAD,2023-06-21 10:54:29,15.08847141,0.0001093,53.2138,218.438,90.2407,269.8711,0.00015636,2.202e-05,0.0,0 STARLINK-4289,1 53024U 22076AQ  23172.45450955  .00002202  00000-0  15636-3 0  9993,2 53024  53.2138 218.4380 0001093  90.2407 269.8711 15.08847141 53190,6917.859,95.437,540.48,538.967,0.0
